OPS 7218 (TRANSIT 16)   
1 02807U 67048A   25103.68651368  .00000217  00000+0  32095-3 0  9997
2 02807  89.6809   1.9622 0022169  97.5379 290.8292 13.50659170849953
OPS 4947 (TRANSIT 17)   
1 02965U 67092A   25103.60148862  .00000224  00000+0  31527-3 0  9990
2 02965  89.2444  43.0287 0046030 220.4571 313.0959 13.53388022838085
OPS 7034 (TRANSIT 18)   
1 03133U 68012A   25103.96793043  .00000202  00000+0  29025-3 0  9993
2 03133  90.0189 273.0641 0075048 152.6068   1.9978 13.51502270536390
NNSS 19 (TRANSIT 19)    
1 04507U 70067A   25104.11712294  .00000230  00000+0  31376-3 0  9992
2 04507  89.9889 234.6045 0170106 276.0182  82.1608 13.51236010689846
NNSS 20 (TRANSIT 20)    
1 06909U 73081A   25103.86276429  .00000371  00000+0  36631-3 0  9990
2 06909  89.8414 258.9055 0156965  86.6951 275.2154 13.71324121770321
TRANSAT                 
1 10457U 77106A   25103.49759160  .00000116  00000+0  16905-3 0  9991
2 10457  89.6427  87.2885 0025628 170.7614 316.0847 13.48901121334641
NOVA 1                  
1 12458U 81044A   25103.72959200  .00000105  00000+0  22739-3 0  9993
2 12458  89.8511  94.8426 0015819  58.0061 115.9404 13.23240410119725
NOVA 3                  
1 15362U 84110A   25103.71373012  .00000070  00000+0  14678-3 0  9991
2 15362  90.1165  77.7636 0029807 280.1397 254.0106 13.23010514954852
OSCAR 30                
1 15935U 85066A   25103.74192817  .00000159  00000+0  26958-3 0  9995
2 15935  90.1664  95.8600 0169456  49.8274 121.7555 13.36026185932087
OSCAR 24                
1 15936U 85066B   25103.96681377  .00000146  00000+0  24618-3 0  9991
2 15936  90.1772  88.0439 0170591  55.4785 314.9229 13.35886396934021
POLAR BEAR              
1 17070U 86088A   25103.51285765  .00000194  00000+0  18989-3 0  9996
2 17070  89.6193 193.4842 0041071 132.6130 239.0144 13.75193883926360
OSCAR 27                
1 18361U 87080A   25103.92597924  .00000140  00000+0  21733-3 0  9993
2 18361  90.3680  70.2993 0103071 199.0671 160.6607 13.44851237842932
OSCAR 29                
1 18362U 87080B   25103.65444712  .00000115  00000+0  17845-3 0  9991
2 18362  90.3690  70.7267 0104025 222.6373 311.9880 13.44401285842438
OSCAR 23                
1 19070U 88033A   25104.19347951  .00000152  00000+0  28645-3 0  9995
2 19070  90.3231   8.8577 0190650 134.5537  29.2205 13.27744692790619
OSCAR 32                
1 19071U 88033B   25103.65234000  .00000157  00000+0  29465-3 0  9992
2 19071  90.3237   8.9606 0189319 123.1899 299.5545 13.27912306790398
NOVA 2                  
1 19223U 88052A   25103.69707229  .00000078  00000+0  16580-3 0  9990
2 19223  89.9807  78.6687 0029398 326.5540 206.8965 13.22905572777348
OSCAR 25                
1 19419U 88074A   25103.51438177  .00000153  00000+0  24811-3 0  9995
2 19419  90.0341  19.4631 0094594 219.5159 314.6989 13.42572590793760
OSCAR 31                
1 19420U 88074B   25104.20145598  .00000133  00000+0  21347-3 0  9995
2 19420  90.0357  19.7767 0093036 211.5870 315.8299 13.42540783794233
